EUTELSAT 65 WEST A      
1 41382U 16014A   26116.83764318 -.00000288  00000+0  00000+0 0  9993
2 41382   0.0594  31.1987 0002246 355.5365  64.4547  1.00272813 37018
EUTELSAT 117 WEST B     
1 41589U 16038B   26116.72196286 -.00000023  00000+0  00000+0 0  9996
2 41589   0.0117  96.3523 0000055  20.2428 241.0426  1.00271872 36145
EUTELSAT 172B           
1 42741U 17029B   26116.81328976 -.00000017  00000+0  00000+0 0  9994
2 42741   0.0165 178.2669 0000108 100.2937  41.0194  1.00272287 33220
EUTELSAT 7C             
1 44334U 19034B   26116.85194324  .00000037  00000+0  00000+0 0  9995
2 44334   0.0746 182.2548 0003309 196.2910 149.9998  1.00270771  6325
EUTELSAT 5 WEST B       
1 44624U 19067A   26116.82475191 -.00000054  00000+0  00000+0 0  9994
2 44624   0.0692  10.8416 0003179  24.9586 110.9244  1.00271487 23920
EUTELSAT KONNECT        
1 45027U 20005B   26116.85194324  .00000038  00000+0  00000+0 0  9996
2 45027   0.0700  89.5225 0001956 205.8990 233.3318  1.00270711 23829
EUTELSAT QUANTUM        
1 49056U 21069B   26116.78377920  .00000114  00000+0  00000+0 0  9995
2 49056   0.0254  61.3252 0002499 335.5548 147.7505  1.00273853 17414
EUTELSAT KONNECT VHTS   
1 53765U 22110A   26116.70848670  .00000006  00000+0  00000+0 0  9992
2 53765   0.0627  92.8369 0003258 271.0594 108.5675  1.00274011  6325
EUTELSAT HOTBIRD 13F    
1 54048U 22134A   26116.63915308  .00000075  00000+0  00000+0 0  9994
2 54048   0.0491 287.6093 0001985  69.1436 100.9807  1.00271946 12866
EUTELSAT HOTBIRD 13G    
1 54225U 22146A   26116.08725360  .00000074  00000+0  00000+0 0  9999
2 54225   0.0373 232.4425 0002014 312.2073  73.8536  1.00272136  6943
EUTELSAT 10B            
1 54259U 22157A   26116.85246324  .00000058  00000+0  00000+0 0  9993
2 54259   0.0595  89.7294 0001122  24.5983  57.3894  1.00275377 12519
EUTELSAT 36D            
1 59346U 24059A   26116.78633043  .00000144  00000+0  00000+0 0  9994
2 59346   0.0195 243.1593 0000260  47.8184 242.7325  1.00276443  7640
