[{"OBJECT_NAME":"EUTELSAT 65 WEST A","OBJECT_ID":"2016-014A","EPOCH":"2026-04-26T20:06:12.370752","MEAN_MOTION":1.00272813,"ECCENTRICITY":0.0002246,"INCLINATION":0.0594,"RA_OF_ASC_NODE":31.1987,"ARG_OF_PERICENTER":355.5365,"MEAN_ANOMALY":64.4547,"EPHEMERIS_TYPE":0,"CLASSIFICATION_TYPE":"U","NORAD_CAT_ID":41382,"ELEMENT_SET_NO":999,"REV_AT_EPOCH":3701,"BSTAR":0,"MEAN_MOTION_DOT":-2.88e-6,"MEAN_MOTION_DDOT":0},{"OBJECT_NAME":"EUTELSAT 117 WEST B","OBJECT_ID":"2016-038B","EPOCH":"2026-04-26T17:19:37.591104","MEAN_MOTION":1.00271872,"ECCENTRICITY":5.5e-6,"INCLINATION":0.0117,"RA_OF_ASC_NODE":96.3523,"ARG_OF_PERICENTER":20.2428,"MEAN_ANOMALY":241.0426,"EPHEMERIS_TYPE":0,"CLASSIFICATION_TYPE":"U","NORAD_CAT_ID":41589,"ELEMENT_SET_NO":999,"REV_AT_EPOCH":3614,"BSTAR":0,"MEAN_MOTION_DOT":-2.3e-7,"MEAN_MOTION_DDOT":0},{"OBJECT_NAME":"EUTELSAT 172B","OBJECT_ID":"2017-029B","EPOCH":"2026-04-26T19:31:08.235264","MEAN_MOTION":1.00272287,"ECCENTRICITY":1.08e-5,"INCLINATION":0.0165,"RA_OF_ASC_NODE":178.2669,"ARG_OF_PERICENTER":100.2937,"MEAN_ANOMALY":41.0194,"EPHEMERIS_TYPE":0,"CLASSIFICATION_TYPE":"U","NORAD_CAT_ID":42741,"ELEMENT_SET_NO":999,"REV_AT_EPOCH":3322,"BSTAR":0,"MEAN_MOTION_DOT":-1.7e-7,"MEAN_MOTION_DDOT":0},{"OBJECT_NAME":"EUTELSAT 7C","OBJECT_ID":"2019-034B","EPOCH":"2026-04-26T20:26:47.895936","MEAN_MOTION":1.00270771,"ECCENTRICITY":0.0003309,"INCLINATION":0.0746,"RA_OF_ASC_NODE":182.2548,"ARG_OF_PERICENTER":196.291,"MEAN_ANOMALY":149.9998,"EPHEMERIS_TYPE":0,"CLASSIFICATION_TYPE":"U","NORAD_CAT_ID":44334,"ELEMENT_SET_NO":999,"REV_AT_EPOCH":632,"BSTAR":0,"MEAN_MOTION_DOT":3.7e-7,"MEAN_MOTION_DDOT":0},{"OBJECT_NAME":"EUTELSAT 5 WEST B","OBJECT_ID":"2019-067A","EPOCH":"2026-04-26T19:47:38.565024","MEAN_MOTION":1.00271487,"ECCENTRICITY":0.0003179,"INCLINATION":0.0692,"RA_OF_ASC_NODE":10.8416,"ARG_OF_PERICENTER":24.9586,"MEAN_ANOMALY":110.9244,"EPHEMERIS_TYPE":0,"CLASSIFICATION_TYPE":"U","NORAD_CAT_ID":44624,"ELEMENT_SET_NO":999,"REV_AT_EPOCH":2392,"BSTAR":0,"MEAN_MOTION_DOT":-5.4e-7,"MEAN_MOTION_DDOT":0},{"OBJECT_NAME":"EUTELSAT KONNECT","OBJECT_ID":"2020-005B","EPOCH":"2026-04-26T20:26:47.895936","MEAN_MOTION":1.00270711,"ECCENTRICITY":0.0001956,"INCLINATION":0.07,"RA_OF_ASC_NODE":89.5225,"ARG_OF_PERICENTER":205.899,"MEAN_ANOMALY":233.3318,"EPHEMERIS_TYPE":0,"CLASSIFICATION_TYPE":"U","NORAD_CAT_ID":45027,"ELEMENT_SET_NO":999,"REV_AT_EPOCH":2382,"BSTAR":0,"MEAN_MOTION_DOT":3.8e-7,"MEAN_MOTION_DDOT":0},{"OBJECT_NAME":"EUTELSAT QUANTUM","OBJECT_ID":"2021-069B","EPOCH":"2026-04-26T18:48:38.522880","MEAN_MOTION":1.00273853,"ECCENTRICITY":0.0002499,"INCLINATION":0.0254,"RA_OF_ASC_NODE":61.3252,"ARG_OF_PERICENTER":335.5548,"MEAN_ANOMALY":147.7505,"EPHEMERIS_TYPE":0,"CLASSIFICATION_TYPE":"U","NORAD_CAT_ID":49056,"ELEMENT_SET_NO":999,"REV_AT_EPOCH":1741,"BSTAR":0,"MEAN_MOTION_DOT":1.14e-6,"MEAN_MOTION_DDOT":0},{"OBJECT_NAME":"EUTELSAT KONNECT VHTS","OBJECT_ID":"2022-110A","EPOCH":"2026-04-26T17:00:13.250880","MEAN_MOTION":1.00274011,"ECCENTRICITY":0.0003258,"INCLINATION":0.0627,"RA_OF_ASC_NODE":92.8369,"ARG_OF_PERICENTER":271.0594,"MEAN_ANOMALY":108.5675,"EPHEMERIS_TYPE":0,"CLASSIFICATION_TYPE":"U","NORAD_CAT_ID":53765,"ELEMENT_SET_NO":999,"REV_AT_EPOCH":632,"BSTAR":0,"MEAN_MOTION_DOT":6.0e-8,"MEAN_MOTION_DDOT":0},{"OBJECT_NAME":"EUTELSAT HOTBIRD 13F","OBJECT_ID":"2022-134A","EPOCH":"2026-04-26T15:20:22.826112","MEAN_MOTION":1.00271946,"ECCENTRICITY":0.0001985,"INCLINATION":0.0491,"RA_OF_ASC_NODE":287.6093,"ARG_OF_PERICENTER":69.1436,"MEAN_ANOMALY":100.9807,"EPHEMERIS_TYPE":0,"CLASSIFICATION_TYPE":"U","NORAD_CAT_ID":54048,"ELEMENT_SET_NO":999,"REV_AT_EPOCH":1286,"BSTAR":0,"MEAN_MOTION_DOT":7.5e-7,"MEAN_MOTION_DDOT":0},{"OBJECT_NAME":"EUTELSAT HOTBIRD 13G","OBJECT_ID":"2022-146A","EPOCH":"2026-04-26T02:05:38.711040","MEAN_MOTION":1.00272136,"ECCENTRICITY":0.00020144,"INCLINATION":0.0373,"RA_OF_ASC_NODE":232.4425,"ARG_OF_PERICENTER":312.2073,"MEAN_ANOMALY":73.8536,"EPHEMERIS_TYPE":0,"CLASSIFICATION_TYPE":"U","NORAD_CAT_ID":54225,"ELEMENT_SET_NO":999,"REV_AT_EPOCH":694,"BSTAR":0,"MEAN_MOTION_DOT":7.4e-7,"MEAN_MOTION_DDOT":0},{"OBJECT_NAME":"EUTELSAT 10B","OBJECT_ID":"2022-157A","EPOCH":"2026-04-26T20:27:32.823936","MEAN_MOTION":1.00275377,"ECCENTRICITY":0.0001122,"INCLINATION":0.0595,"RA_OF_ASC_NODE":89.7294,"ARG_OF_PERICENTER":24.5983,"MEAN_ANOMALY":57.3894,"EPHEMERIS_TYPE":0,"CLASSIFICATION_TYPE":"U","NORAD_CAT_ID":54259,"ELEMENT_SET_NO":999,"REV_AT_EPOCH":1251,"BSTAR":0,"MEAN_MOTION_DOT":5.8e-7,"MEAN_MOTION_DDOT":0},{"OBJECT_NAME":"EUTELSAT 36D","OBJECT_ID":"2024-059A","EPOCH":"2026-04-26T18:52:18.949152","MEAN_MOTION":1.00276443,"ECCENTRICITY":2.6e-5,"INCLINATION":0.0195,"RA_OF_ASC_NODE":243.1593,"ARG_OF_PERICENTER":47.8184,"MEAN_ANOMALY":242.7325,"EPHEMERIS_TYPE":0,"CLASSIFICATION_TYPE":"U","NORAD_CAT_ID":59346,"ELEMENT_SET_NO":999,"REV_AT_EPOCH":764,"BSTAR":0,"MEAN_MOTION_DOT":1.44e-6,"MEAN_MOTION_DDOT":0}]
